[{"OBJECT_NAME":"JILIN-1 06","OBJECT_ID":"2017-074C","EPOCH":"2026-03-09T22:46:57.173376","MEAN_MOTION":15.32444387,"ECCENTRICITY":0.00061285,"INCLINATION":97.4715,"RA_OF_ASC_NODE":171.0354,"ARG_OF_PERICENTER":223.0031,"MEAN_ANOMALY":137.0732,"EPHEMERIS_TYPE":0,"CLASSIFICATION_TYPE":"U","NORAD_CAT_ID":43024,"ELEMENT_SET_NO":999,"REV_AT_EPOCH":45863,"BSTAR":0.00028431628,"MEAN_MOTION_DOT":8.833e-5,"MEAN_MOTION_DDOT":0},{"OBJECT_NAME":"STARLINK-34960","OBJECT_ID":"2025-176X","EPOCH":"2026-03-09T22:45:01.825920","MEAN_MOTION":15.30211699,"ECCENTRICITY":0.00014589,"INCLINATION":53.1605,"RA_OF_ASC_NODE":151.267,"ARG_OF_PERICENTER":81.942,"MEAN_ANOMALY":278.1747,"EPHEMERIS_TYPE":0,"CLASSIFICATION_TYPE":"U","NORAD_CAT_ID":65219,"ELEMENT_SET_NO":999,"REV_AT_EPOCH":3316,"BSTAR":0.00073692971,"MEAN_MOTION_DOT":0.00021538,"MEAN_MOTION_DDOT":0}]
